Showroom Name,Brand,Category,Address,City,State,Pincode,Google Maps Link
Tata Showroom Banjara Hills,Tata,Car,Banjara Hills, Hyderabad, Telangana,500034,"https://www.google.com/maps/search/?api=1&query=Tata+Showroom+Banjara+Hills,+Banjara+Hills,++Hyderabad,+500034"
Tata Showroom Kukatpally,Tata,Car,Kukatpally, Hyderabad, Telangana,500072,"https://www.google.com/maps/search/?api=1&query=Tata+Showroom+Kukatpally,+Kukatpally,++Hyderabad,+500072"
Maruti Showroom Madhapur,Maruti,Car,Madhapur, Hyderabad, Telangana,500081,"https://www.google.com/maps/search/?api=1&query=Maruti+Showroom+Madhapur,+Madhapur,++Hyderabad,+500081"
Maruti Showroom Ameerpet,Maruti,Car,Ameerpet, Hyderabad, Telangana,500016,"https://www.google.com/maps/search/?api=1&query=Maruti+Showroom+Ameerpet,+Ameerpet,++Hyderabad,+500016"
Hyundai Showroom Jubilee Hills,Hyundai,Car,Jubilee Hills, Hyderabad, Telangana,500033,"https://www.google.com/maps/search/?api=1&query=Hyundai+Showroom+Jubilee+Hills,+Jubilee+Hills,++Hyderabad,+500033"
Hyundai Showroom Mehdipatnam,Hyundai,Car,Mehdipatnam, Hyderabad, Telangana,500028,"https://www.google.com/maps/search/?api=1&query=Hyundai+Showroom+Mehdipatnam,+Mehdipatnam,++Hyderabad,+500028"
Toyota Showroom Hitech City,Toyota,Car,Hitech City, Hyderabad, Telangana,500081,"https://www.google.com/maps/search/?api=1&query=Toyota+Showroom+Hitech+City,+Hitech+City,++Hyderabad,+500081"
Toyota Showroom Secunderabad,Toyota,Car,Secunderabad, Hyderabad, Telangana,500003,"https://www.google.com/maps/search/?api=1&query=Toyota+Showroom+Secunderabad,+Secunderabad,++Hyderabad,+500003"
Honda Showroom LB Nagar,Honda,Car,LB Nagar, Hyderabad, Telangana,500074,"https://www.google.com/maps/search/?api=1&query=Honda+Showroom+LB+Nagar,+LB+Nagar,++Hyderabad,+500074"
Honda Showroom Kompally,Honda,Car,Kompally, Hyderabad, Telangana,500014,"https://www.google.com/maps/search/?api=1&query=Honda+Showroom+Kompally,+Kompally,++Hyderabad,+500014"
Honda Showroom Ameerpet,Honda,Two-Wheeler,Ameerpet, Hyderabad, Telangana,500016,"https://www.google.com/maps/search/?api=1&query=Honda+Showroom+Ameerpet,+Ameerpet,++Hyderabad,+500016"
Yamaha Showroom Gachibowli,Yamaha,Two-Wheeler,Gachibowli, Hyderabad, Telangana,500032,"https://www.google.com/maps/search/?api=1&query=Yamaha+Showroom+Gachibowli,+Gachibowli,++Hyderabad,+500032"
Yamaha Showroom Uppal,Yamaha,Two-Wheeler,Uppal, Hyderabad, Telangana,500039,"https://www.google.com/maps/search/?api=1&query=Yamaha+Showroom+Uppal,+Uppal,++Hyderabad,+500039"
Hero Showroom Begumpet,Hero,Two-Wheeler,Begumpet, Hyderabad, Telangana,500016,"https://www.google.com/maps/search/?api=1&query=Hero+Showroom+Begumpet,+Begumpet,++Hyderabad,+500016"
Hero Showroom Banjara Hills,Hero,Two-Wheeler,Banjara Hills, Hyderabad, Telangana,500034,"https://www.google.com/maps/search/?api=1&query=Hero+Showroom+Banjara+Hills,+Banjara+Hills,++Hyderabad,+500034"
Bajaj Showroom Tolichowki,Bajaj,Two-Wheeler,Tolichowki, Hyderabad, Telangana,500008,"https://www.google.com/maps/search/?api=1&query=Bajaj+Showroom+Tolichowki,+Tolichowki,++Hyderabad,+500008"
Bajaj Showroom Kukatpally,Bajaj,Two-Wheeler,Kukatpally, Hyderabad, Telangana,500072,"https://www.google.com/maps/search/?api=1&query=Bajaj+Showroom+Kukatpally,+Kukatpally,++Hyderabad,+500072"
TVS Showroom LB Nagar,TVS,Two-Wheeler,LB Nagar, Hyderabad, Telangana,500074,"https://www.google.com/maps/search/?api=1&query=TVS+Showroom+LB+Nagar,+LB+Nagar,++Hyderabad,+500074"
TVS Showroom Madhapur,TVS,Two-Wheeler,Madhapur, Hyderabad, Telangana,500081,"https://www.google.com/maps/search/?api=1&query=TVS+Showroom+Madhapur,+Madhapur,++Hyderabad,+500081"
Tata Showroom Gachibowli,Tata,Car,Gachibowli, Hyderabad, Telangana,500032,"https://www.google.com/maps/search/?api=1&query=Tata+Showroom+Gachibowli,+Gachibowli,++Hyderabad,+500032"
Maruti Showroom Uppal,Maruti,Car,Uppal, Hyderabad, Telangana,500039,"https://www.google.com/maps/search/?api=1&query=Maruti+Showroom+Uppal,+Uppal,++Hyderabad,+500039"
Hyundai Showroom Dilsukhnagar,Hyundai,Car,Dilsukhnagar, Hyderabad, Telangana,500060,"https://www.google.com/maps/search/?api=1&query=Hyundai+Showroom+Dilsukhnagar,+Dilsukhnagar,++Hyderabad,+500060"
Toyota Showroom Jubilee Hills,Toyota,Car,Jubilee Hills, Hyderabad, Telangana,500033,"https://www.google.com/maps/search/?api=1&query=Toyota+Showroom+Jubilee+Hills,+Jubilee+Hills,++Hyderabad,+500033"
Honda Showroom Tolichowki,Honda,Car,Tolichowki, Hyderabad, Telangana,500008,"https://www.google.com/maps/search/?api=1&query=Honda+Showroom+Tolichowki,+Tolichowki,++Hyderabad,+500008"
Hero Showroom Hitech City,Hero,Two-Wheeler,Hitech City, Hyderabad, Telangana,500081,"https://www.google.com/maps/search/?api=1&query=Hero+Showroom+Hitech+City,+Hitech+City,++Hyderabad,+500081"
Yamaha Showroom Dilsukhnagar,Yamaha,Two-Wheeler,Dilsukhnagar, Hyderabad, Telangana,500060,"https://www.google.com/maps/search/?api=1&query=Yamaha+Showroom+Dilsukhnagar,+Dilsukhnagar,++Hyderabad,+500060"
TVS Showroom Secunderabad,TVS,Two-Wheeler,Secunderabad, Hyderabad, Telangana,500003,"https://www.google.com/maps/search/?api=1&query=TVS+Showroom+Secunderabad,+Secunderabad,++Hyderabad,+500003"
Bajaj Showroom Ameerpet,Bajaj,Two-Wheeler,Ameerpet, Hyderabad, Telangana,500016,"https://www.google.com/maps/search/?api=1&query=Bajaj+Showroom+Ameerpet,+Ameerpet,++Hyderabad,+500016"
Tata Showroom Kompally,Tata,Car,Kompally, Hyderabad, Telangana,500014,"https://www.google.com/maps/search/?api=1&query=Tata+Showroom+Kompally,+Kompally,++Hyderabad,+500014"
Maruti Showroom Mehdipatnam,Maruti,Car,Mehdipatnam, Hyderabad, Telangana,500028,"https://www.google.com/maps/search/?api=1&query=Maruti+Showroom+Mehdipatnam,+Mehdipatnam,++Hyderabad,+500028"
